{
    "links": {
        "self": "http://www.neowsapp.com/rest/v1/neo/3381347?api_key=iIulBulltgU6a56xZRHN4H3l9WmuAYTsLGpBGhQ2"
    },
    "id": "3381347",
    "neo_reference_id": "3381347",
    "name": "(2007 PR25)",
    "designation": "2007 PR25",
    "nasa_jpl_url": "http://ssd.jpl.nasa.gov/sbdb.cgi?sstr=3381347",
    "absolute_magnitude_h": 22.0,
    "estimated_diameter": {
        "kilometers": {
            "estimated_diameter_min": 0.1058168859,
            "estimated_diameter_max": 0.2366137501
        },
        "meters": {
            "estimated_diameter_min": 105.8168859331,
            "estimated_diameter_max": 236.6137501138
        },
        "miles": {
            "estimated_diameter_min": 0.0657515442,
            "estimated_diameter_max": 0.1470249225
        },
        "feet": {
            "estimated_diameter_min": 347.1682720448,
            "estimated_diameter_max": 776.2918559233
        }
    },
    "is_potentially_hazardous_asteroid": true,
    "close_approach_data": [
        {
            "close_approach_date": "2007-08-20",
            "close_approach_date_full": "2007-Aug-20 09:00",
            "epoch_date_close_approach": 1187600400000,
            "relative_velocity": {
                "kilometers_per_second": "27.392447163",
                "kilometers_per_hour": "98612.809786841",
                "miles_per_hour": "61274.1650589402"
            },
            "miss_distance": {
                "astronomical": "0.0695179819",
                "lunar": "27.0424949591",
                "kilometers": "10399742.018938553",
                "miles": "6462100.0390079114"
            },
            "orbiting_body": "Earth"
        }
    ],
    "orbital_data": {
        "orbit_id": "10",
        "orbit_determination_date": "2017-04-06 09:06:13",
        "first_observation_date": "2007-08-13",
        "last_observation_date": "2007-08-20",
        "data_arc_in_days": 7,
        "observations_used": 43,
        "orbit_uncertainty": "9",
        "minimum_orbit_intersection": ".0118918",
        "jupiter_tisserand_invariant": "3.302",
        "epoch_osculation": "2454330.5",
        "eccentricity": ".8479022940239992",
        "semi_major_axis": "1.962260970121887",
        "inclination": "3.496263376592069",
        "ascending_node_longitude": "154.9629895210341",
        "orbital_period": "1003.999682412253",
        "perihelion_distance": ".2984553920817809",
        "perihelion_argument": "291.351314883279",
        "aphelion_distance": "3.626066548161994",
        "perihelion_time": "2454376.544052403789",
        "mean_anomaly": "343.4901751905556",
        "mean_motion": ".3585658504742237",
        "equinox": "J2000",
        "orbit_class": {
            "orbit_class_type": "APO",
            "orbit_class_description": "Near-Earth asteroid orbits which cross the Earth’s orbit similar to that of 1862 Apollo",
            "orbit_class_range": "a (semi-major axis) > 1.0 AU; q (perihelion) < 1.017 AU"
        }
    },
    "is_sentry_object": false
}